CZ-4B R/B               
1 28415U 04035C   25259.04281544  .00007254  00000+0  28540-3 0  9992
2 28415  97.3743 290.6133 0033604 224.3357 135.5189 15.25415162153251
CZ-2C R/B               
1 28480U 04046B   25259.23610746  .00000208  00000+0  93166-4 0  9996
2 28480  98.1911 180.0898 0138712 311.1884  47.7402 14.26877783 83621
ARIANE 5 R/B            
1 28499U 04049H   25259.18460685  .00001228  00000+0  14325-3 0  9990
2 28499  98.2464  56.3819 0084729 195.7859 164.0711 14.84695614119899
CZ-2D R/B               
1 28738U 05024B   25259.25872827  .00025594  00000+0  50295-3 0  9991
2 28738  97.3707 264.7499 0003408 327.1561  32.9477 15.47275442112708
ALOS (DAICHI)           
1 28931U 06002A   25258.84359656  .00001420  00000+0  25050-3 0  9990
2 28931  98.0930 211.0549 0002261  97.9787 262.1675 14.69017509 47804
H-2A R/B                
1 28932U 06002B   25259.11463367  .00010147  00000+0  56659-3 0  9992
2 28932  98.2220  26.9248 0057782 114.0377 246.6914 15.12307878 68011
RESURS-DK 1             
1 29228U 06021A   25259.16117689  .00002427  00000+0  14953-3 0  9993
2 29228  69.9353 328.0421 0004586 343.1054  16.9958 15.11432411 61146
CZ-4B R/B               
1 29507U 06046C   25259.13626065  .00005182  00000+0  28007-3 0  9996
2 29507  97.5880 299.5165 0035991 149.4457 210.8882 15.14579232 33600
CZ-2C R/B               
1 31114U 07010B   25259.28610380  .00000126  00000+0  76478-4 0  9993
2 31114  98.3892  16.3797 0060196  81.6020 279.1976 14.20160089954968
COSMO-SKYMED 1          
1 31598U 07023A   25259.32739072  .00004170  00000+0  38799-3 0  9994
2 31598  97.8894  84.1944 0001442  93.2366 266.9019 14.94865729988837
COSMOS 2428             
1 31792U 07029A   25259.16168009 -.00000124  00000+0 -40954-4 0  9998
2 31792  70.9429 209.7210 0003625 206.3862 153.7075 14.12903440939444
SL-16 R/B               
1 31793U 07029B   25259.07843424 -.00000234  00000+0 -96615-4 0  9997
2 31793  70.9759 179.4195 0002834 268.9028 184.3468 14.14791399940678
KORONAS-FOTON           
1 33504U 09003A   25259.01994611  .00011663  00000+0  30746-3 0  9990
2 33504  82.4296  96.7866 0013075  66.5303 293.7314 15.38270266918848
CZ-2C R/B               
1 37731U 11030B   25259.13807914  .00001031  00000+0  13865-3 0  9992
2 37731  97.8248 215.2921 0052744 196.7581 173.6443 14.80460052764265
H-2A R/B                
1 38341U 12025E   25259.10206827  .00002059  00000+0  19788-3 0  9999
2 38341  98.4436 207.7207 0046315 161.5720 198.7188 14.93523984722147
SHIJIAN-16 (SJ-16)      
1 39358U 13057A   25259.21681472  .00001730  00000+0  17498-3 0  9990
2 39358  74.9725 155.1994 0017065 179.8983 180.2211 14.91564375645489
SL-4 R/B                
1 39679U 14021B   25258.85428403  .00012657  00000+0  33022-3 0  9991
2 39679  51.6080 106.6136 0109466 187.8066 172.1215 15.33280888629395
ALOS-2                  
1 39766U 14029A   25259.29376098  .00000083  00000+0  17953-4 0  9993
2 39766  97.9224 355.3892 0001355  96.5892 263.5474 14.79473797611089
YAOGAN-29               
1 41038U 15069A   25259.29726825  .00000431  00000+0  60101-4 0  9990
2 41038  98.0318 282.1385 0001834 144.2212 215.9125 14.82734465530038
ASTRO-H (HITOMI)        
1 41337U 16012A   25259.10873523  .00002812  00000+0  16988-3 0  9997
2 41337  31.0005  41.9470 0010101  19.1718 340.9299 15.08526239525834
HXMT (HUIYAN)           
1 42758U 17034A   25259.06859648  .00004726  00000+0  25897-3 0  9992
2 42758  43.0137 265.5998 0034347 214.5300 145.3316 15.14765108456035
CZ-2C R/B               
1 43521U 18054D   25259.11238566  .00050470  00000+0  62018-3 0  9993
2 43521  35.1378  47.5376 0030943  29.4657 330.7808 15.58570838401316
SAOCOM 1A               
1 43641U 18076A   25259.31325619  .00000452  00000+0  63376-4 0  9992
2 43641  97.8897  84.9874 0001354  91.9917 268.1451 14.82153713375532
H-2A R/B                
1 43682U 18084L   25259.22376646  .00017790  00000+0  55177-3 0  9994
2 43682  98.8841  75.4714 0030022 265.0847  94.6963 15.33056315378973
SAOCOM 1B               
1 46265U 20059A   25259.27698794  .00000455  00000+0  63738-4 0  9998
2 46265  97.8889  84.0586 0001542  89.4770 270.6620 14.82157005272919
CSS (TIANHE)            
1 48274U 21035A   25259.20495679  .00030606  00000+0  37632-3 0  9999
2 48274  41.4641 188.8652 0003902 353.4406   6.6381 15.59591300250351
COSMOS 2550             
1 48865U 21056A   25259.02187144 -.00000154  00000+0  11367-5 0  9998
2 48865  67.1425 209.3245 0008266 268.8448  91.1759 15.33827956236670
CZ-2C R/B               
1 52794U 22058K   25259.07155073  .00017594  00000+0  38235-3 0  9994
2 52794  50.1916 128.6474 0054196 191.6925 168.2785 15.42826969183079
GSLV R/B                
1 54149U 22138AN  25259.14793940  .00002931  00000+0  26210-3 0  9997
2 54149  87.3800 224.7815 0024918  68.6628 291.7259 14.95280538157834
XRISM                   
1 57800U 23137A   25259.22824451  .00005984  00000+0  36391-3 0  9997
2 57800  31.0033 329.9636 0008229  87.8135 272.3445 15.08949902111392
ACS3                    
1 59588U 24077B   25259.21180027  .00025675  00000+0  24169-1 0  9996
2 59588  97.3940 233.9950 0044697 346.6891  13.3085 13.80791843 70042
